{"fetched_at":"2026-07-18T06:27:49.000Z","source":"https://celestrak.org/NORAD/elements/gp.php?GROUP=qianfan&FORMAT=JSON","constellation":"qianfan","records":[{"OBJECT_NAME":"QIANFAN-209","OBJECT_ID":"2026-153J","EPOCH":"2026-07-17T22:01:56.988480","CLASSIFICATION_TYPE":"U","MEAN_MOTION":14.23086572,"ECCENTRICITY":0.00076632,"INCLINATION":88.9925,"RA_OF_ASC_NODE":358.7353,"ARG_OF_PERICENTER":171.5407,"MEAN_ANOMALY":188.5916,"EPHEMERIS_TYPE":0,"NORAD_CAT_ID":69808,"ELEMENT_SET_NO":999,"REV_AT_EPOCH":193,"BSTAR":0.000049695968,"MEAN_MOTION_DOT":0.00000127,"MEAN_MOTION_DDOT":0},{"OBJECT_NAME":"QIANFAN-210","OBJECT_ID":"2026-153K","EPOCH":"2026-07-17T21:56:55.947552","CLASSIFICATION_TYPE":"U","MEAN_MOTION":14.23252591,"ECCENTRICITY":0.00082082,"INCLINATION":88.9926,"RA_OF_ASC_NODE":358.7349,"ARG_OF_PERICENTER":174.3047,"MEAN_ANOMALY":185.824,"EPHEMERIS_TYPE":0,"NORAD_CAT_ID":69809,"ELEMENT_SET_NO":999,"REV_AT_EPOCH":193,"BSTAR":0.000018368831,"MEAN_MOTION_DOT":5.6e-7,"MEAN_MOTION_DDOT":0},{"OBJECT_NAME":"QIANFAN-211","OBJECT_ID":"2026-153L","EPOCH":"2026-07-17T21:56:08.475936","CLASSIFICATION_TYPE":"U","MEAN_MOTION":14.23382187,"ECCENTRICITY":0.00078284,"INCLINATION":88.9925,"RA_OF_ASC_NODE":358.7346,"ARG_OF_PERICENTER":171.2281,"MEAN_ANOMALY":188.9049,"EPHEMERIS_TYPE":0,"NORAD_CAT_ID":69810,"ELEMENT_SET_NO":999,"REV_AT_EPOCH":193,"BSTAR":0.000029938487,"MEAN_MOTION_DOT":8.2e-7,"MEAN_MOTION_DDOT":0},{"OBJECT_NAME":"QIANFAN-212","OBJECT_ID":"2026-153M","EPOCH":"2026-07-17T13:21:48.245760","CLASSIFICATION_TYPE":"U","MEAN_MOTION":14.218371,"ECCENTRICITY":0.0007528,"INCLINATION":88.992,"RA_OF_ASC_NODE":358.7744,"ARG_OF_PERICENTER":169.0889,"MEAN_ANOMALY":191.0467,"EPHEMERIS_TYPE":0,"NORAD_CAT_ID":69811,"ELEMENT_SET_NO":999,"REV_AT_EPOCH":188,"BSTAR":-0.88345,"MEAN_MOTION_DOT":-0.01812966,"MEAN_MOTION_DDOT":0},{"OBJECT_NAME":"QIANFAN-213","OBJECT_ID":"2026-153N","EPOCH":"2026-07-17T11:40:56.277408","CLASSIFICATION_TYPE":"U","MEAN_MOTION":14.21585762,"ECCENTRICITY":0.0006786,"INCLINATION":88.9919,"RA_OF_ASC_NODE":358.7827,"ARG_OF_PERICENTER":174.7343,"MEAN_ANOMALY":185.392,"EPHEMERIS_TYPE":0,"NORAD_CAT_ID":69812,"ELEMENT_SET_NO":999,"REV_AT_EPOCH":187,"BSTAR":-0.89107,"MEAN_MOTION_DOT":-0.01819392,"MEAN_MOTION_DDOT":0},{"OBJECT_NAME":"QIANFAN-214","OBJECT_ID":"2026-153P","EPOCH":"2026-07-17T20:07:40.994688","CLASSIFICATION_TYPE":"U","MEAN_MOTION":14.26715399,"ECCENTRICITY":0.00081141,"INCLINATION":88.9925,"RA_OF_ASC_NODE":358.7421,"ARG_OF_PERICENTER":175.5831,"MEAN_ANOMALY":184.5436,"EPHEMERIS_TYPE":0,"NORAD_CAT_ID":69813,"ELEMENT_SET_NO":999,"REV_AT_EPOCH":192,"BSTAR":0.000033203706,"MEAN_MOTION_DOT":9.5e-7,"MEAN_MOTION_DDOT":0},{"OBJECT_NAME":"QIANFAN-215","OBJECT_ID":"2026-153Q","EPOCH":"2026-07-17T21:48:38.090016","CLASSIFICATION_TYPE":"U","MEAN_MOTION":14.26718881,"ECCENTRICITY":0.000821,"INCLINATION":88.9924,"RA_OF_ASC_NODE":358.7337,"ARG_OF_PERICENTER":176.6897,"MEAN_ANOMALY":183.4353,"EPHEMERIS_TYPE":0,"NORAD_CAT_ID":69814,"ELEMENT_SET_NO":999,"REV_AT_EPOCH":193,"BSTAR":0.00004888589,"MEAN_MOTION_DOT":0.00000133,"MEAN_MOTION_DDOT":0},{"OBJECT_NAME":"QIANFAN-216","OBJECT_ID":"2026-153R","EPOCH":"2026-07-17T21:48:37.410912","CLASSIFICATION_TYPE":"U","MEAN_MOTION":14.2672003,"ECCENTRICITY":0.00081833,"INCLINATION":88.9925,"RA_OF_ASC_NODE":358.7339,"ARG_OF_PERICENTER":176.5489,"MEAN_ANOMALY":183.5762,"EPHEMERIS_TYPE":0,"NORAD_CAT_ID":69815,"ELEMENT_SET_NO":999,"REV_AT_EPOCH":193,"BSTAR":0.000055319108,"MEAN_MOTION_DOT":0.00000148,"MEAN_MOTION_DDOT":0},{"OBJECT_NAME":"QIANFAN-217","OBJECT_ID":"2026-153S","EPOCH":"2026-07-17T21:47:57.078528","CLASSIFICATION_TYPE":"U","MEAN_MOTION":14.26768057,"ECCENTRICITY":0.0007881,"INCLINATION":88.9924,"RA_OF_ASC_NODE":358.7336,"ARG_OF_PERICENTER":173.197,"MEAN_ANOMALY":186.9332,"EPHEMERIS_TYPE":0,"NORAD_CAT_ID":69816,"ELEMENT_SET_NO":999,"REV_AT_EPOCH":193,"BSTAR":0.000002648618,"MEAN_MOTION_DOT":2.1e-7,"MEAN_MOTION_DDOT":0},{"OBJECT_NAME":"QIANFAN-218","OBJECT_ID":"2026-153T","EPOCH":"2026-07-17T21:47:23.016192","CLASSIFICATION_TYPE":"U","MEAN_MOTION":14.26811091,"ECCENTRICITY":0.00076543,"INCLINATION":88.9926,"RA_OF_ASC_NODE":358.7341,"ARG_OF_PERICENTER":170.4744,"MEAN_ANOMALY":189.6597,"EPHEMERIS_TYPE":0,"NORAD_CAT_ID":69817,"ELEMENT_SET_NO":999,"REV_AT_EPOCH":193,"BSTAR":0.00003292569,"MEAN_MOTION_DOT":9.4e-7,"MEAN_MOTION_DDOT":0},{"OBJECT_NAME":"QIANFAN-219","OBJECT_ID":"2026-155A","EPOCH":"2026-07-17T21:20:59.806176","CLASSIFICATION_TYPE":"U","MEAN_MOTION":14.26455281,"ECCENTRICITY":0.00307586,"INCLINATION":89.0065,"RA_OF_ASC_NODE":60.6396,"ARG_OF_PERICENTER":213.9363,"MEAN_ANOMALY":145.9864,"EPHEMERIS_TYPE":0,"NORAD_CAT_ID":69848,"ELEMENT_SET_NO":999,"REV_AT_EPOCH":176,"BSTAR":0.000017912296,"MEAN_MOTION_DOT":5.8e-7,"MEAN_MOTION_DDOT":0},{"OBJECT_NAME":"QIANFAN-220","OBJECT_ID":"2026-155B","EPOCH":"2026-07-17T20:03:36.390240","CLASSIFICATION_TYPE":"U","MEAN_MOTION":14.15144118,"ECCENTRICITY":0.00340039,"INCLINATION":89.0064,"RA_OF_ASC_NODE":60.6507,"ARG_OF_PERICENTER":211.1294,"MEAN_ANOMALY":148.788,"EPHEMERIS_TYPE":0,"NORAD_CAT_ID":69849,"ELEMENT_SET_NO":999,"REV_AT_EPOCH":175,"BSTAR":-1.1202131,"MEAN_MOTION_DOT":-0.02023166,"MEAN_MOTION_DDOT":0},{"OBJECT_NAME":"QIANFAN-221","OBJECT_ID":"2026-155C","EPOCH":"2026-07-17T21:19:42.506688","CLASSIFICATION_TYPE":"U","MEAN_MOTION":14.26647613,"ECCENTRICITY":0.00305682,"INCLINATION":89.0064,"RA_OF_ASC_NODE":60.6394,"ARG_OF_PERICENTER":214.3676,"MEAN_ANOMALY":145.5541,"EPHEMERIS_TYPE":0,"NORAD_CAT_ID":69850,"ELEMENT_SET_NO":999,"REV_AT_EPOCH":176,"BSTAR":0.000075743849,"MEAN_MOTION_DOT":0.00000198,"MEAN_MOTION_DDOT":0},{"OBJECT_NAME":"QIANFAN-222","OBJECT_ID":"2026-155D","EPOCH":"2026-07-17T19:58:00.985440","CLASSIFICATION_TYPE":"U","MEAN_MOTION":14.22185075,"ECCENTRICITY":0.00295553,"INCLINATION":89.0065,"RA_OF_ASC_NODE":60.6495,"ARG_OF_PERICENTER":214.6997,"MEAN_ANOMALY":145.2267,"EPHEMERIS_TYPE":0,"NORAD_CAT_ID":69851,"ELEMENT_SET_NO":999,"REV_AT_EPOCH":175,"BSTAR":0.000015570034,"MEAN_MOTION_DOT":4.9e-7,"MEAN_MOTION_DDOT":0},{"OBJECT_NAME":"QIANFAN-223","OBJECT_ID":"2026-155E","EPOCH":"2026-07-17T21:36:07.332768","CLASSIFICATION_TYPE":"U","MEAN_MOTION":14.22140062,"ECCENTRICITY":0.00293075,"INCLINATION":89.0066,"RA_OF_ASC_NODE":60.6414,"ARG_OF_PERICENTER":213.8157,"MEAN_ANOMALY":146.1166,"EPHEMERIS_TYPE":0,"NORAD_CAT_ID":69852,"ELEMENT_SET_NO":999,"REV_AT_EPOCH":176,"BSTAR":0.000064142235,"MEAN_MOTION_DOT":0.00000157,"MEAN_MOTION_DDOT":0},{"OBJECT_NAME":"QIANFAN-224","OBJECT_ID":"2026-155F","EPOCH":"2026-07-17T21:29:45.028320","CLASSIFICATION_TYPE":"U","MEAN_MOTION":14.18497223,"ECCENTRICITY":0.00311144,"INCLINATION":89.0052,"RA_OF_ASC_NODE":60.6399,"ARG_OF_PERICENTER":224.5648,"MEAN_ANOMALY":135.3039,"EPHEMERIS_TYPE":0,"NORAD_CAT_ID":69853,"ELEMENT_SET_NO":999,"REV_AT_EPOCH":176,"BSTAR":-0.93450076,"MEAN_MOTION_DOT":-0.01809487,"MEAN_MOTION_DDOT":0}]}
