QIANFAN-209             
1 69808U 26153J   26198.91802070  .00000127  00000+0  49696-4 0  9998
2 69808  88.9925 358.7353 0007663 171.5407 188.5916 14.23086572  1934
QIANFAN-210             
1 69809U 26153K   26198.91453643  .00000056  00000+0  18369-4 0  9991
2 69809  88.9926 358.7349 0008208 174.3047 185.8240 14.23252591  1934
QIANFAN-211             
1 69810U 26153L   26198.91398699  .00000082  00000+0  29938-4 0  9995
2 69810  88.9925 358.7346 0007828 171.2281 188.9049 14.23382187  1931
QIANFAN-212             
1 69811U 26153M   26198.55680840 -.01812966  00000+0 -88345+0 0  9995
2 69811  88.9920 358.7744 0007528 169.0889 191.0467 14.21837100  1886
QIANFAN-213             
1 69812U 26153N   26198.48676247 -.01819392  00000+0 -89107+0 0  9991
2 69812  88.9919 358.7827 0006786 174.7343 185.3920 14.21585762  1873
QIANFAN-214             
1 69813U 26153P   26198.83866892  .00000095  00000+0  33204-4 0  9999
2 69813  88.9925 358.7421 0008114 175.5831 184.5436 14.26715399  1924
QIANFAN-215             
1 69814U 26153Q   26198.90877419  .00000133  00000+0  48886-4 0  9990
2 69814  88.9924 358.7337 0008210 176.6897 183.4353 14.26718881  1937
QIANFAN-216             
1 69815U 26153R   26198.90876633  .00000148  00000+0  55319-4 0  9993
2 69815  88.9925 358.7339 0008183 176.5489 183.5762 14.26720030  1930
QIANFAN-217             
1 69816U 26153S   26198.90829952  .00000021  00000+0  26486-5 0  9990
2 69816  88.9924 358.7336 0007881 173.1970 186.9332 14.26768057  1930
QIANFAN-218             
1 69817U 26153T   26198.90790528  .00000094  00000+0  32926-4 0  9992
2 69817  88.9926 358.7341 0007654 170.4744 189.6597 14.26811091  1936
QIANFAN-219             
1 69848U 26155A   26198.88958109  .00000058  00000+0  17912-4 0  9994
2 69848  89.0065  60.6396 0030758 213.9363 145.9864 14.26455281  1764
QIANFAN-220             
1 69849U 26155B   26198.83583785 -.02023166  00000+0 -11202+1 0  9995
2 69849  89.0064  60.6507 0034003 211.1294 148.7880 14.15144118  1758
QIANFAN-221             
1 69850U 26155C   26198.88868642  .00000198  00000+0  75744-4 0  9991
2 69850  89.0064  60.6394 0030568 214.3676 145.5541 14.26647613  1765
QIANFAN-222             
1 69851U 26155D   26198.83195585  .00000049  00000+0  15570-4 0  9992
2 69851  89.0065  60.6495 0029555 214.6997 145.2267 14.22185075  1758
QIANFAN-223             
1 69852U 26155E   26198.90008487  .00000157  00000+0  64142-4 0  9994
2 69852  89.0066  60.6414 0029307 213.8157 146.1166 14.22140062  1761
QIANFAN-224             
1 69853U 26155F   26198.89566005 -.01809487  00000+0 -93450+0 0  9993
2 69853  89.0052  60.6399 0031114 224.5648 135.3039 14.18497223  1760
